{
  "type": "FeatureCollection",
  "features": [
    {
      "type": "Feature",
      "properties": {
        "norad_id": 26766,
        "name": "INTELSAT 10 (IS-10)",
        "group": "intelsat",
        "lat": 1.1490838712053335,
        "lon": -126.58382289021554,
        "alt_km": 36107.29618938175,
        "timestamp": "2025-12-26T03:50:11.755119+00:00",
        "meta_object_name": "INTELSAT 10 (IS-10)",
        "meta_object_id": "2001-019A",
        "meta_epoch": "2025-12-25T19:25:55.835328",
        "meta_mean_motion": 0.9907201,
        "meta_eccentricity": 0.0008005,
        "meta_inclination": 8.6586,
        "meta_ra_of_asc_node": 61.0243,
        "meta_arg_of_pericenter": 229.8346,
        "meta_mean_anomaly": 177.6501,
        "meta_ephemeris_type": 0,
        "meta_classification_type": "U",
        "meta_norad_cat_id": 26766,
        "meta_element_set_no": 999,
        "meta_rev_at_epoch": 4386,
        "meta_bstar": 0,
        "meta_mean_motion_dot": 3.8e-07,
        "meta_mean_motion_ddot": 0,
        "tle_line1": "1 26766U 01019A   25359.80967402  .00000038  00000+0  00000+0 0  9997",
        "tle_line2": "2 26766   8.6586  61.0243 0008005 229.8346 177.6501  0.99072010 43861"
      },
      "geometry": {
        "type": "Point",
        "coordinates": [
          -126.58382289021554,
          1.1490838712053335
        ]
      }
    },
    {
      "type": "Feature",
      "properties": {
        "norad_id": 26900,
        "name": "INTELSAT 902 (IS-902)",
        "group": "intelsat",
        "lat": 2.7085716399378135,
        "lon": 102.10343172385306,
        "alt_km": 35805.22569410903,
        "timestamp": "2025-12-26T03:50:11.755142+00:00",
        "meta_object_name": "INTELSAT 902 (IS-902)",
        "meta_object_id": "2001-039A",
        "meta_epoch": "2025-12-15T13:09:02.081664",
        "meta_mean_motion": 1.0027087,
        "meta_eccentricity": 0.00045028,
        "meta_inclination": 5.6536,
        "meta_ra_of_asc_node": 74.0372,
        "meta_arg_of_pericenter": 189.6359,
        "meta_mean_anomaly": 327.9329,
        "meta_ephemeris_type": 0,
        "meta_classification_type": "U",
        "meta_norad_cat_id": 26900,
        "meta_element_set_no": 999,
        "meta_rev_at_epoch": 8885,
        "meta_bstar": 0,
        "meta_mean_motion_dot": -2.65e-06,
        "meta_mean_motion_ddot": 0,
        "tle_line1": "1 26900U 01039A   25349.54794076 -.00000265  00000+0  00000+0 0  9997",
        "tle_line2": "2 26900   5.6536  74.0372 0004502 189.6359 327.9329  1.00270870 88858"
      },
      "geometry": {
        "type": "Point",
        "coordinates": [
          102.10343172385306,
          2.7085716399378135
        ]
      }
    },
    {
      "type": "Feature",
      "properties": {
        "norad_id": 27380,
        "name": "INTELSAT 904 (IS-904)",
        "group": "intelsat",
        "lat": 4.960490721153693,
        "lon": 120.79772552535431,
        "alt_km": 35793.16815191715,
        "timestamp": "2025-12-26T03:50:11.755160+00:00",
        "meta_object_name": "INTELSAT 904 (IS-904)",
        "meta_object_id": "2002-007A",
        "meta_epoch": "2025-12-24T23:13:20.404128",
        "meta_mean_motion": 1.00272977,
        "meta_eccentricity": 0.00019711,
        "meta_inclination": 6.4832,
        "meta_ra_of_asc_node": 71.2913,
        "meta_arg_of_pericenter": 246.5744,
        "meta_mean_anomaly": 92.7188,
        "meta_ephemeris_type": 0,
        "meta_classification_type": "U",
        "meta_norad_cat_id": 27380,
        "meta_element_set_no": 999,
        "meta_rev_at_epoch": 5001,
        "meta_bstar": 0,
        "meta_mean_motion_dot": -2.07e-06,
        "meta_mean_motion_ddot": 0,
        "tle_line1": "1 27380U 02007A   25358.96759727 -.00000207  00000+0  00000+0 0  9992",
        "tle_line2": "2 27380   6.4832  71.2913 0001971 246.5744  92.7188  1.00272977 50014"
      },
      "geometry": {
        "type": "Point",
        "coordinates": [
          120.79772552535431,
          4.960490721153693
        ]
      }
    },
    {
      "type": "Feature",
      "properties": {
        "norad_id": 27426,
        "name": "DIRECTV 5 (TEMPO 1)",
        "group": "intelsat",
        "lat": -2.5432568387413634,
        "lon": 42.44888090584638,
        "alt_km": 35793.659114787646,
        "timestamp": "2025-12-26T03:50:11.755174+00:00",
        "meta_object_name": "DIRECTV 5 (TEMPO 1)",
        "meta_object_id": "2002-023A",
        "meta_epoch": "2025-12-25T07:28:38.731296",
        "meta_mean_motion": 1.00271555,
        "meta_eccentricity": 0.0003354,
        "meta_inclination": 4.4323,
        "meta_ra_of_asc_node": 77.5052,
        "meta_arg_of_pericenter": 204.4666,
        "meta_mean_anomaly": 174.1445,
        "meta_ephemeris_type": 0,
        "meta_classification_type": "U",
        "meta_norad_cat_id": 27426,
        "meta_element_set_no": 999,
        "meta_rev_at_epoch": 8638,
        "meta_bstar": 0,
        "meta_mean_motion_dot": -3.7e-07,
        "meta_mean_motion_ddot": 0,
        "tle_line1": "1 27426U 02023A   25359.31155939 -.00000037  00000+0  00000+0 0  9997",
        "tle_line2": "2 27426   4.4323  77.5052 0003354 204.4666 174.1445  1.00271555 86385"
      },
      "geometry": {
        "type": "Point",
        "coordinates": [
          42.44888090584638,
          -2.5432568387413634
        ]
      }
    },
    {
      "type": "Feature",
      "properties": {
        "norad_id": 27438,
        "name": "INTELSAT 905 (IS-905)",
        "group": "intelsat",
        "lat": -5.273920221382968,
        "lon": 15.471120896815671,
        "alt_km": 35787.44700676385,
        "timestamp": "2025-12-26T03:50:11.755187+00:00",
        "meta_object_name": "INTELSAT 905 (IS-905)",
        "meta_object_id": "2002-027A",
        "meta_epoch": "2025-12-23T05:41:27.377952",
        "meta_mean_motion": 1.00273243,
        "meta_eccentricity": 0.00027491,
        "meta_inclination": 6.3102,
        "meta_ra_of_asc_node": 71.9349,
        "meta_arg_of_pericenter": 206.5226,
        "meta_mean_anomaly": 121.7385,
        "meta_ephemeris_type": 0,
        "meta_classification_type": "U",
        "meta_norad_cat_id": 27438,
        "meta_element_set_no": 999,
        "meta_rev_at_epoch": 4959,
        "meta_bstar": 0,
        "meta_mean_motion_dot": 1.12e-06,
        "meta_mean_motion_ddot": 0,
        "tle_line1": "1 27438U 02027A   25357.23712243  .00000112  00000+0  00000+0 0  9993",
        "tle_line2": "2 27438   6.3102  71.9349 0002749 206.5226 121.7385  1.00273243 49592"
      },
      "geometry": {
        "type": "Point",
        "coordinates": [
          15.471120896815671,
          -5.273920221382968
        ]
      }
    },
    {
      "type": "Feature",
      "properties": {
        "norad_id": 27445,
        "name": "GALAXY 3C (G-3C)",
        "group": "intelsat",
        "lat": -1.2631518449339347,
        "lon": 57.62176124824705,
        "alt_km": 35787.691135558925,
        "timestamp": "2025-12-26T03:50:11.755200+00:00",
        "meta_object_name": "GALAXY 3C (G-3C)",
        "meta_object_id": "2002-030A",
        "meta_epoch": "2025-12-25T14:19:42.420000",
        "meta_mean_motion": 1.00271629,
        "meta_eccentricity": 0.0001018,
        "meta_inclination": 3.2938,
        "meta_ra_of_asc_node": 80.3705,
        "meta_arg_of_pericenter": 86.0973,
        "meta_mean_anomaly": 47.9599,
        "meta_ephemeris_type": 0,
        "meta_classification_type": "U",
        "meta_norad_cat_id": 27445,
        "meta_element_set_no": 999,
        "meta_rev_at_epoch": 4475,
        "meta_bstar": 0,
        "meta_mean_motion_dot": -1.32e-06,
        "meta_mean_motion_ddot": 0,
        "tle_line1": "1 27445U 02030A   25359.59701875 -.00000132  00000+0  00000+0 0  9998",
        "tle_line2": "2 27445   3.2938  80.3705 0001018  86.0973  47.9599  1.00271629 44756"
      },
      "geometry": {
        "type": "Point",
        "coordinates": [
          57.62176124824705,
          -1.2631518449339347
        ]
      }
    },
    {
      "type": "Feature",
      "properties": {
        "norad_id": 27513,
        "name": "INTELSAT 906 (IS-906)",
        "group": "intelsat",
        "lat": 3.3358848327143478,
        "lon": -143.35329938138852,
        "alt_km": 35773.061568942474,
        "timestamp": "2025-12-26T03:50:11.755212+00:00",
        "meta_object_name": "INTELSAT 906 (IS-906)",
        "meta_object_id": "2002-041A",
        "meta_epoch": "2025-12-25T18:30:25.911072",
        "meta_mean_motion": 1.00270895,
        "meta_eccentricity": 0.0006177,
        "meta_inclination": 5.3631,
        "meta_ra_of_asc_node": 75.0767,
        "meta_arg_of_pericenter": 202.1174,
        "meta_mean_anomaly": 159.0704,
        "meta_ephemeris_type": 0,
        "meta_classification_type": "U",
        "meta_norad_cat_id": 27513,
        "meta_element_set_no": 999,
        "meta_rev_at_epoch": 8529,
        "meta_bstar": 0,
        "meta_mean_motion_dot": 3.3e-07,
        "meta_mean_motion_ddot": 0,
        "tle_line1": "1 27513U 02041A   25359.77113323  .00000033  00000+0  00000+0 0  9990",
        "tle_line2": "2 27513   5.3631  75.0767 0006177 202.1174 159.0704  1.00270895 85290"
      },
      "geometry": {
        "type": "Point",
        "coordinates": [
          -143.35329938138852,
          3.3358848327143478
        ]
      }
    }
  ]
}